[{"OBJECT_NAME":"YAOGAN-43 01G","OBJECT_ID":"2024-148G","EPOCH":"2026-03-09T10:38:37.087584","MEAN_MOTION":15.28332833,"ECCENTRICITY":0.00073829,"INCLINATION":35.0006,"RA_OF_ASC_NODE":62.0013,"ARG_OF_PERICENTER":306.3543,"MEAN_ANOMALY":53.6492,"EPHEMERIS_TYPE":0,"CLASSIFICATION_TYPE":"U","NORAD_CAT_ID":60464,"ELEMENT_SET_NO":999,"REV_AT_EPOCH":8700,"BSTAR":0.00035872736,"MEAN_MOTION_DOT":0.00010133,"MEAN_MOTION_DDOT":0},{"OBJECT_NAME":"STARLINK-36089","OBJECT_ID":"2025-286Y","EPOCH":"2026-03-09T01:04:26.909760","MEAN_MOTION":15.30209605,"ECCENTRICITY":0.00012127,"INCLINATION":53.1601,"RA_OF_ASC_NODE":1.7547,"ARG_OF_PERICENTER":92.3094,"MEAN_ANOMALY":267.8046,"EPHEMERIS_TYPE":0,"CLASSIFICATION_TYPE":"U","NORAD_CAT_ID":66947,"ELEMENT_SET_NO":999,"REV_AT_EPOCH":1531,"BSTAR":0.00073641481,"MEAN_MOTION_DOT":0.00021521,"MEAN_MOTION_DDOT":0}]
